#aV2024  4 28  0  0  0.00000000     288 DD+AD WGS84 FIT  NGA
## 2312      0.00000000   300.00000000 60428 0.0000000000000
+   31     2  3  4  5  6  7  8  9 10 11 12 13 14 15 16 17 18
+         19 20 21 22 23 24 25 26 27 28 29 30 31 32  0  0  0
+          0  0  0  0  0  0  0  0  0  0  0  0  0  0  0  0  0
+          0  0  0  0  0  0  0  0  0  0  0  0  0  0  0  0  0
+          0  0  0  0  0  0  0  0  0  0  0  0  0  0  0  0  0
++         2  2  2  2  2  2  2  2  2  2  2  2  2  2  2  2  2
++         2  2  2  2  2  2  2  2  2  2  2  2  2  2  0  0  0
++         0  0  0  0  0  0  0  0  0  0  0  0  0  0  0  0  0
++         0  0  0  0  0  0  0  0  0  0  0  0  0  0  0  0  0
++         0  0  0  0  0  0  0  0  0  0  0  0  0  0  0  0  0
%c cc cc ccc ccc cccc cccc cccc cccc ccccc ccccc ccccc ccccc
%c cc cc ccc ccc cccc cccc cccc cccc ccccc ccccc ccccc ccccc
%f  0.0000000  0.000000000  0.00000000000  0.000000000000000
%f  0.0000000  0.000000000  0.00000000000  0.000000000000000
%i    0    0    0    0      0      0      0      0         0
%i    0    0    0    0      0      0      0      0         0
/*      NGA, ST. LOUIS,MO.                                  
/*   EPHEMERIS COMPUTED FROM 2 DAYS OF DATA                 
/*   EPOCHA v9 SMOOTHER                                     
/*   G2296 IERS2010 SATIGS SATAPC                           
*  2024  4 28 19 55  0.00000000
P  2  20809.837347  14023.349893  -8641.415767   -445.437558                    
V  2 -11632.765694  -1854.678716 -29118.226121      0.066129                    
P  3  12092.829212  17399.811035  15942.529157    335.756170                    
V  3    311.083972  20468.129523 -22243.456094      0.204448                    
P  4  14755.818124   7607.711721  20780.526893    349.299936                    
V  4 -21643.021240  14964.051142   9767.995747      0.086069                    
P  5  -5885.815732 -25634.333200  -3498.501220   -170.807425                    
V  5   1930.582994  -4531.741216  31633.638309     -0.013638                    
P  6  12671.672275  -9482.623887  21411.355369    299.587833                    
V  6  24048.334217  12152.341481  -8766.978738     -0.187400                    
P  7  24690.584524   4588.153803  -8826.247340   -117.464447                    
V  7   9572.946654   7376.433598  28481.140250     -0.083094                    
P  8   6091.426190  14489.597821 -21472.280155    149.061184                    
V  8 -22048.093763  15757.990947   4822.924934      0.217643                    
P  9  22302.968345  -4491.421574  13671.508014    177.059729                    
V  9 -12736.251322  12178.431494  24582.861687      0.138454                    
P 10 -10988.295755  15236.829348 -18433.659092    -14.906792                    
V 10  -3419.496911 -23692.000785 -17659.907024     -0.054531                    
P 11   -710.218959 -16585.420224  20766.565763   -648.798945                    
V 11  23634.316571  11540.061681   9986.376318     -0.099593                    
P 12 -10531.350697 -19316.365619  14635.171383   -500.707578                    
V 12   1736.746426 -19089.696532 -23437.190259     -0.033874                    
P 13   4107.675439 -17308.774520 -19851.054441    646.422385                    
V 13  22644.765195 -10194.520212  13941.118066      0.029948                    
P 14  13582.816559 -11236.114392 -19777.711160    387.779355                    
V 14   2963.839349  25153.335746 -12438.149063      0.094197                    
P 15  -7947.463067 -14273.716923 -21415.218302    153.363615                    
V 15  19355.305809 -17638.200358   4880.775877      0.040886                    
P 16    207.592232  26311.937846   -292.608310   -305.180249                    
V 16  -3157.712603    -24.043184  32088.123951      0.096666                    
P 17  23074.112112 -13240.326739  -1109.096029    709.776821                    
V 17   -352.463652   3073.440199 -31794.903595     -0.018181                    
P 18 -24165.127218  -3871.479705 -10544.607466   -602.260664                    
V 18 -11106.664025  -7611.171636  28027.422084     -0.062496                    
P 19  19210.681143 -16405.816286   7354.347150    474.674784                    
V 19   9810.357167  -2252.686789 -30281.005175      0.053422                    
P 20   -598.013984 -25277.267955   8444.832660    378.494830                    
V 20   5338.178674   9546.411145  29015.581768     -0.013905                    
P 21  17326.683193  15825.768089 -12907.016263    124.684943                    
V 21 -16314.846618  -4114.377618 -25049.116198     -0.022048                    
P 22  10375.199153 -19302.759959 -14788.725999     -6.175617                    
V 22   1913.247289  19411.634976 -23049.152660     -0.054617                    
P 23 -14657.618703   2105.137482 -22023.538281    212.315500                    
V 23  -3333.292231 -27769.103906   -623.941792      0.094826                    
P 24 -18920.766395 -15526.431867 -11225.637703   -464.420712                    
V 24  13674.372393   1975.153761 -26368.870592     -0.039851                    
P 25 -14957.907780  -9692.956553  19431.390480    494.722730                    
V 25  -1378.330853 -25360.918009 -13219.055623      0.007634                    
P 26  -5689.507073  22434.532765  12544.860854    160.384777                    
V 26  -5984.287417 -15604.426856  25259.321952     -0.053019                    
P 27  -6076.167417  19183.448018 -17400.112498    -21.280180                    
V 27 -18763.021236  11056.634548  19478.019009     -0.020849                    
P 28 -14953.834090   8844.205196  20075.153329   -221.990189                    
V 28 -23036.312857 -11037.382439 -12291.486327     -0.156622                    
P 29 -21612.673352    534.615880  15448.470231   -600.341129                    
V 29  16035.923817 -11477.749293  22643.107405      0.013416                    
P 30  19575.131371  -4877.441183 -17265.304049   -398.398370                    
V 30  19229.232330  11238.900915  18204.197556      0.057115                    
P 31  -4880.265927  14540.830375  21448.944977   -227.946359                    
V 31 -25107.025724 -11925.101632   2737.141564      0.000543                    
P 32 -21148.371571  15870.724463    881.949562   -618.418329                    
V 32  -2438.349046  -1911.520660 -31873.612580     -0.000855                    
EOF
